norad_id,name,regime,epoch,line1,line2,inclination,eccentricity,mean_motion,raan,arg_pericenter,mean_anomaly
43231,O3B FM15,MEO,21034.36530098,1 43231U 18024A   21034.36530098 -.00000015  00000-0  00000-0 0    13\,2 43231   0.0460  14.1737 0002898 295.0530  50.7431  5.00115421 52982,0.046,0.0002898,5.00115421,14.1737,295.053,50.7431
43231,O3B FM15,MEO,21034.56519153,1 43231U 18024A   21034.56519153 -.00000015  00000-0  00000-0 0    14\,2 43231   0.0461  14.1679 0002896 295.2628  50.5392  5.00115428 52998,0.0461,0.0002896,5.00115428,14.1679,295.2628,50.5392
43231,O3B FM15,MEO,21035.36475420,1 43231U 18024A   21035.36475420 -.00000016  00000-0  00000-0 0    12\,2 43231   0.0462  14.2059 0002893 296.2556  49.5085  5.00115419 53033,0.0462,0.0002893,5.00115419,14.2059,296.2556,49.5085
43231,O3B FM15,MEO,21035.76453568,1 43231U 18024A   21035.76453568 -.00000017  00000-0  00000-0 0    16\,2 43231   0.0462  14.1451 0002892 296.6936  49.1314  5.00115401 53057,0.0462,0.0002892,5.00115401,14.1451,296.6936,49.1314
43231,O3B FM15,MEO,21036.36420773,1 43231U 18024A   21036.36420773 -.00000018  00000-0  00000-0 0    16\,2 43231   0.0463  14.1503 0002890 297.2716  48.5482  5.00115385 53080,0.0463,0.000289,5.00115385,14.1503,297.2716,48.5482
43231,O3B FM15,MEO,21036.56409812,1 43231U 18024A   21036.56409812 -.00000019  00000-0  00000-0 0    10\,2 43231   0.0463  14.1352 0002889 297.4941  48.3408  5.00115404 53091,0.0463,0.0002889,5.00115404,14.1352,297.4941,48.3408
43231,O3B FM15,MEO,21037.36366047,1 43231U 18024A   21037.36366047 -.00000021  00000-0  00000-0 0    14\,2 43231   0.0464  14.1207 0002886 298.3043  47.5449  5.00115412 53131,0.0464,0.0002886,5.00115412,14.1207,298.3043,47.5449
43231,O3B FM15,MEO,21037.76344183,1 43231U 18024A   21037.76344183 -.00000022  00000-0  00000-0 0    16\,2 43231   0.0464  14.1012 0002884 298.6980  47.1707  5.00115401 53159,0.0464,0.0002884,5.00115401,14.1012,298.698,47.1707
43231,O3B FM15,MEO,21038.36311318,1 43231U 18024A   21038.36311318 -.00000024  00000-0  00000-0 0    19\,2 43231   0.0465  14.1199 0002882 299.2645  46.5853  5.00115439 53188,0.0465,0.0002882,5.00115439,14.1199,299.2645,46.5853
43231,O3B FM15,MEO,21038.56300377,1 43231U 18024A   21038.56300377 -.00000024  00000-0  00000-0 0    14\,2 43231   0.0465  14.0511 0002882 299.4711  46.4475  5.00115440 53182,0.0465,0.0002882,5.0011544,14.0511,299.4711,46.4475
43231,O3B FM15,MEO,21039.36256622,1 43231U 18024A   21039.36256622 -.00000026  00000-0  00000-0 0    18\,2 43231   0.0466  14.0878 0002880 300.3249  45.5569  5.00115441 53236,0.0466,0.000288,5.00115441,14.0878,300.3249,45.5569
43231,O3B FM15,MEO,21040.36201895,1 43231U 18024A   21040.36201895 -.00000028  00000-0  00000-0 0    14\,2 43231   0.0467  14.0770 0002876 301.3382  44.5543  5.00115473 53283,0.0467,0.0002876,5.00115473,14.077,301.3382,44.5543
43231,O3B FM15,MEO,21040.76180016,1 43231U 18024A   21040.76180016 -.00000029  00000-0  00000+0 0  2583\,2 43231   0.0468  14.0176 0002875 301.7697  44.1821  5.00115477 53465,0.0468,0.0002875,5.00115477,14.0176,301.7697,44.1821
43231,O3B FM15,MEO,21040.76180024,1 43231U 18024A   21040.76180024 -.00000029  00000-0  00000-0 0    19\,2 43231   0.0468  14.0719 0002875 301.7737  44.1239  5.00115472 53304,0.0468,0.0002875,5.00115472,14.0719,301.7737,44.1239
43231,O3B FM15,MEO,21041.36147221,1 43231U 18024A   21041.36147221 -.00000030  00000-0  00000-0 0    10\,2 43231   0.0468  14.0613 0002874 302.2644  43.6438  5.00115468 53332,0.0468,0.0002874,5.00115468,14.0613,302.2644,43.6438
43231,O3B FM15,MEO,21041.76125331,1 43231U 18024A   21041.76125331 -.00000030  00000-0  00000-0 0    12\,2 43231   0.0468  14.0057 0002872 302.6873  43.2766  5.00115485 53351,0.0468,0.0002872,5.00115485,14.0057,302.6873,43.2766
43231,O3B FM15,MEO,21042.36092523,1 43231U 18024A   21042.36092523 -.00000030  00000-0  00000-0 0    15\,2 43231   0.0469  13.9837 0002869 303.3661  42.6200  5.00115496 53386,0.0469,0.0002869,5.00115496,13.9837,303.3661,42.62
43231,O3B FM15,MEO,21042.76070658,1 43231U 18024A   21042.76070658 -.00000031  00000-0  00000-0 0    15\,2 43231   0.0469  13.9800 0002867 303.7690  42.2210  5.00115498 53402,0.0469,0.0002867,5.00115498,13.98,303.769,42.221
43231,O3B FM15,MEO,21043.36037855,1 43231U 18024A   21043.36037855 -.00000030  00000-0  00000-0 0    13\,2 43231   0.0470  14.0260 0002865 304.3146  41.6297  5.00115508 53430,0.047,0.0002865,5.00115508,14.026,304.3146,41.6297
43231,O3B FM15,MEO,21043.56026909,1 43231U 18024A   21043.56026909 -.00000030  00000-0  00000-0 0    13\,2 43231   0.0470  14.0233 0002866 304.4977  41.4494  5.00115521 53447,0.047,0.0002866,5.00115521,14.0233,304.4977,41.4494
43231,O3B FM15,MEO,21044.35983195,1 43231U 18024A   21044.35983195 -.00000030  00000-0  00000-0 0    10\,2 43231   0.0471  13.9401 0002864 305.2750  40.7559  5.00115518 53483,0.0471,0.0002864,5.00115518,13.9401,305.275,40.7559
43231,O3B FM15,MEO,21044.55972262,1 43231U 18024A   21044.55972262 -.00000030  00000-0  00000-0 0    15\,2 43231   0.0471  13.9350 0002863 305.4742  40.5620  5.00115521 53490,0.0471,0.0002863,5.00115521,13.935,305.4742,40.562
43231,O3B FM15,MEO,21045.35928544,1 43231U 18024A   21045.35928544 -.00000029  00000-0  00000-0 0    16\,2 43231   0.0472  13.9626 0002861 306.2397  39.7696  5.00115529 53536,0.0472,0.0002861,5.00115529,13.9626,306.2397,39.7696
43231,O3B FM15,MEO,21048.35764584,1 43231U 18024A   21048.35764584 -.00000024  00000-0  00000-0 0    16\,2 43231   0.0475  13.8643 0002856 309.2795  36.8311  5.00115565 53684,0.0475,0.0002856,5.00115565,13.8643,309.2795,36.8311
43231,O3B FM15,MEO,21049.55699016,1 43231U 18024A   21049.55699016 -.00000023  00000-0  00000-0 0    15\,2 43231   0.0476  13.7821 0002853 310.4697  35.7243  5.00115550 53747,0.0476,0.0002853,5.0011555,13.7821,310.4697,35.7243
43231,O3B FM15,MEO,21050.15666229,1 43231U 18024A   21050.15666229 -.00000022  00000-0  00000-0 0    12\,2 43231   0.0477  13.7142 0002852 311.1004  35.1620  5.00115542 53769,0.0477,0.0002852,5.00115542,13.7142,311.1004,35.162
43231,O3B FM15,MEO,21051.35600633,1 43231U 18024A   21051.35600633 -.00000021  00000-0  00000-0 0    11\,2 43231   0.0478  13.7807 0002849 312.2493  33.9475  5.00115536 53833,0.0478,0.0002849,5.00115536,13.7807,312.2493,33.9475
43231,O3B FM15,MEO,21051.75578770,1 43231U 18024A   21051.75578770 -.00000021  00000-0  00000-0 0    11\,2 43231   0.0479  13.7750 0002848 312.6804  33.5225  5.00115531 53856,0.0479,0.0002848,5.00115531,13.775,312.6804,33.5225
43231,O3B FM15,MEO,21052.35545951,1 43231U 18024A   21052.35545951 -.00000020  00000-0  00000-0 0    12\,2 43231   0.0479  13.7662 0002843 313.2809  32.9311  5.00115539 53885,0.0479,0.0002843,5.00115539,13.7662,313.2809,32.9311
43231,O3B FM15,MEO,21052.55535016,1 43231U 18024A   21052.55535016 -.00000020  00000-0  00000-0 0    15\,2 43231   0.0479  13.7092 0002843 313.5065  32.7626  5.00115537 53884,0.0479,0.0002843,5.00115537,13.7092,313.5065,32.7626
43231,O3B FM15,MEO,21053.55480348,1 43231U 18024A   21053.55480348 -.00000019  00000-0  00000-0 0    11\,2 43231   0.0480  13.7155 0002841 314.5601  31.7033  5.00115522 53932,0.048,0.0002841,5.00115522,13.7155,314.5601,31.7033
43231,O3B FM15,MEO,21053.75469409,1 43231U 18024A   21053.75469409 -.00000019  00000-0  00000-0 0    18\,2 43231   0.0480  13.7784 0002840 314.7679  31.4326  5.00115522 53950,0.048,0.000284,5.00115522,13.7784,314.7679,31.4326
43231,O3B FM15,MEO,21053.75469411,1 43231U 18024A   21053.75469411 -.00000019  00000-0  00000+0 0  2618\,2 43231   0.0480  13.7204 0002840 314.7958  31.4628  5.00115521 54110,0.048,0.000284,5.00115521,13.7204,314.7958,31.4628
43231,O3B FM15,MEO,21054.15447524,1 43231U 18024A   21054.15447524 -.00000019  00000-0  00000-0 0    17\,2 43231   0.0481  13.7808 0002840 315.1779  31.0205  5.00115529 53975,0.0481,0.000284,5.00115529,13.7808,315.1779,31.0205
43231,O3B FM15,MEO,21054.75414716,1 43231U 18024A   21054.75414716 -.00000019  00000-0  00000-0 0    10\,2 43231   0.0481  13.7264 0002838 315.7476  30.5053  5.00115521 53997,0.0481,0.0002838,5.00115521,13.7264,315.7476,30.5053
43231,O3B FM15,MEO,21055.35381888,1 43231U 18024A   21055.35381888 -.00000018  00000-0  00000-0 0    19\,2 43231   0.0482  13.7318 0002836 316.2324  30.0153  5.00115525 54030,0.0482,0.0002836,5.00115525,13.7318,316.2324,30.0153
43231,O3B FM15,MEO,21056.35327227,1 43231U 18024A   21056.35327227 -.00000018  00000-0  00000-0 0    17\,2 43231   0.0483  13.7739 0002831 317.4218  28.7843  5.00115501 54087,0.0483,0.0002831,5.00115501,13.7739,317.4218,28.7843
43231,O3B FM15,MEO,21056.75305356,1 43231U 18024A   21056.75305356 -.00000017  00000-0  00000-0 0    19\,2 43231   0.0483  13.7187 0002831 317.7860  28.4755  5.00115495 54104,0.0483,0.0002831,5.00115495,13.7187,317.786,28.4755
43231,O3B FM15,MEO,21057.15283498,1 43231U 18024A   21057.15283498 -.00000017  00000-0  00000-0 0    16\,2 43231   0.0483  13.7155 0002829 318.1893  28.0756  5.00115481 54121,0.0483,0.0002829,5.00115481,13.7155,318.1893,28.0756
43231,O3B FM15,MEO,21057.75250680,1 43231U 18024A   21057.75250680 -.00000017  00000-0  00000-0 0    19\,2 43231   0.0484  13.7075 0002828 318.8100  27.4632  5.00115484 54152,0.0484,0.0002828,5.00115484,13.7075,318.81,27.4632
43231,O3B FM15,MEO,21058.35217869,1 43231U 18024A   21058.35217869 -.00000017  00000-0  00000-0 0    18\,2 43231   0.0484  13.7011 0002826 319.4194  26.8604  5.00115484 54185,0.0484,0.0002826,5.00115484,13.7011,319.4194,26.8604
43231,O3B FM15,MEO,21058.55206939,1 43231U 18024A   21058.55206939 -.00000017  00000-0  00000-0 0    16\,2 43231   0.0484  13.7015 0002825 319.6222  26.6574  5.00115479 54191,0.0484,0.0002825,5.00115479,13.7015,319.6222,26.6574
43231,O3B FM15,MEO,21059.35163194,1 43231U 18024A   21059.35163194 -.00000017  00000-0  00000-0 0    10\,2 43231   0.0485  13.7509 0002822 320.4157  25.8149  5.00115480 54230,0.0485,0.0002822,5.0011548,13.7509,320.4157,25.8149
